{"fetched_at":"2026-03-29T16:36:15Z","count":15609,"tles":[{"name":"STARLINK-35278","line1":"1 65902U 25224W   26087.84623107  .00021330  00000+0  72999-3 0  9998","line2":"2 65902  53.1584 282.6197 0001215  97.1840 262.9299 15.30210188 27808","category":"Starlink"}]}