{
  "norad_id": 65902,
  "name": "STARLINK-35278",
  "history": [
    {
      "epoch": "2026-03-28T20:18:34.364448",
      "apogee_km": 476.0173286369809,
      "perigee_km": 474.35197147601593,
      "latitude_deg": -1.815831203961001,
      "longitude_deg": 131.43818271998316,
      "semi_major_axis_km": 6853.321650056498,
      "eccentricity": 0.0001215,
      "inclination_deg": 53.1584,
      "raan_deg": 282.6197,
      "arg_perigee_deg": 97.184,
      "mean_anomaly_deg": 262.9299,
      "mean_motion_rev_day": 15.30210188
    }
  ]
}